start=new Date('2022-06-18T00:00:00.000Z').valueOf();
sats=[{"OBJECT_ID":"2021-024B","CENTER_NAME":"EARTH","SEMIMAJOR_AXIS":"6925.350","REF_FRAME":"TEME","MEAN_ANOMALY":"287.6864","REV_AT_EPOCH":"6913","PERIAPSIS":"546.177","MEAN_MOTION":"15.06399526","MEAN_MOTION_DOT":"0.00000889","DECAY_DATE":null,"EPHEMERIS_TYPE":"0","PERIOD":"95.592","TLE_LINE2":"2 47978  53.0546 335.1096 0001499  72.4289 287.6864 15.06399526 69138","ECCENTRICITY":"0.00014990","ARG_OF_PERICENTER":"72.4289","TIME_SYSTEM":"UTC","RA_OF_ASC_NODE":"335.1096","COUNTRY_CODE":"US","EPOCH":"2022-06-15T17:52:50.865888","ELEMENT_SET_NO":"999","LAUNCH_DATE":"2021-03-24","FILE":"3496999","INCLINATION":"53.0546","RCS_SIZE":"LARGE","BSTAR":"0.00007858800000","TLE_LINE1":"1 47978U 21024B   22166.74503317  .00000889  00000-0  78588-4 0  9996","NORAD_CAT_ID":"47978","MEAN_ELEMENT_THEORY":"SGP4","MEAN_MOTION_DDOT":"0.0000000000000","OBJECT_TYPE":"PAYLOAD","CLASSIFICATION_TYPE":"U","OBJECT_NAME":"STARLINK-1647","APOAPSIS":"548.253","SITE":"AFETR","GP_ID":"206237940"},{"OBJECT_ID":"2021-024C","CENTER_NAME":"EARTH","SEMIMAJOR_AXIS":"6925.346","REF_FRAME":"TEME","REV_AT_EPOCH":"7008","MEAN_ANOMALY":"302.3859","PERIAPSIS":"546.128","MEAN_MOTION_DOT":"0.00000278","MEAN_MOTION":"15.06400732","DECAY_DATE":null,"EPHEMERIS_TYPE":"0","PERIOD":"95.592","TLE_LINE2":"2 47979  53.0550 268.9061 0001564  57.7281 302.3859 15.06400732 70087","ARG_OF_PERICENTER":"57.7281","ECCENTRICITY":"0.00015640","TIME_SYSTEM":"UTC","RA_OF_ASC_NODE":"268.9061","EPOCH":"2022-06-16T00:20:58.620768","COUNTRY_CODE":"US","ELEMENT_SET_NO":"999","LAUNCH_DATE":"2021-03-24","FILE":"3497002","INCLINATION":"53.0550","RCS_SIZE":"LARGE","BSTAR":"0.00003752900000","TLE_LINE1":"1 47979U 21024C   22167.01456737  .00000278  00000-0  37529-4 0  9993","NORAD_CAT_ID":"47979","MEAN_ELEMENT_THEORY":"SGP4","MEAN_MOTION_DDOT":"0.0000000000000","OBJECT_TYPE":"PAYLOAD","CLASSIFICATION_TYPE":"U","OBJECT_NAME":"STARLINK-2325","APOAPSIS":"548.294","SITE":"AFETR","GP_ID":"206287444"},{"SITE":"AFETR","GP_ID":"206288692","APOAPSIS":"548.447","OBJECT_NAME":"STARLINK-2312","CLASSIFICATION_TYPE":"U","OBJECT_TYPE":"PAYLOAD","MEAN_ELEMENT_THEORY":"SGP4","MEAN_MOTION_DDOT":"0.0000000000000","TLE_LINE1":"1 47980U 21024D   22166.96850303  .00001141  00000-0  95499-4 0  9995","NORAD_CAT_ID":"47980","BSTAR":"0.00009549900000","RCS_SIZE":"LARGE","FILE":"3497002","INCLINATION":"53.0554","LAUNCH_DATE":"2021-03-24","EPOCH":"2022-06-15T23:14:38.661792","COUNTRY_CODE":"US","ELEMENT_SET_NO":"999","RA_OF_ASC_NODE":"249.2387","TLE_LINE2":"2 47980  53.0554 249.2387 0001777  59.9308 300.1857 15.06399160 70352","PERIOD":"95.592","ARG_OF_PERICENTER":"59.9308","ECCENTRICITY":"0.00017770","TIME_SYSTEM":"UTC","MEAN_MOTION":"15.06399160","PERIAPSIS":"545.985","MEAN_MOTION_DOT":"0.00001141","EPHEMERIS_TYPE":"0","DECAY_DATE":null,"MEAN_ANOMALY":"300.1857","REV_AT_EPOCH":"7035","REF_FRAME":"TEME","SEMIMAJOR_AXIS":"6925.351","CENTER_NAME":"EARTH","OBJECT_ID":"2021-024D"},{"OBJECT_NAME":"STARLINK-2303","APOAPSIS":"548.192","SITE":"AFETR","GP_ID":"206237190","MEAN_ELEMENT_THEORY":"SGP4","MEAN_MOTION_DDOT":"0.0000000000000","OBJECT_TYPE":"PAYLOAD","CLASSIFICATION_TYPE":"U","RCS_SIZE":"LARGE","BSTAR":"0.00017462000000","TLE_LINE1":"1 47981U 21024E   22166.73398997  .00002318  00000-0  17462-3 0  9997","NORAD_CAT_ID":"47981","LAUNCH_DATE":"2021-03-24","FILE":"3496999","INCLINATION":"53.0553","ECCENTRICITY":"0.00012770","TLE_LINE2":"2 47981  53.0553 335.1611 0001277  85.8765 274.2370 15.06369326 69133","PERIOD":"95.594","ARG_OF_PERICENTER":"85.8765","TIME_SYSTEM":"UTC","RA_OF_ASC_NODE":"335.1611","EPOCH":"2022-06-15T17:36:56.733408","COUNTRY_CODE":"US","ELEMENT_SET_NO":"999","SEMIMAJOR_AXIS":"6925.443","REF_FRAME":"TEME","REV_AT_EPOCH":"6913","MEAN_ANOMALY":"274.2370","MEAN_MOTION_DOT":"0.00002318","PERIAPSIS":"546.423","MEAN_MOTION":"15.06369326","DECAY_DATE":null,"EPHEMERIS_TYPE":"0","OBJECT_ID":"2021-024E","CENTER_NAME":"EARTH"},{"MEAN_MOTION_DDOT":"0.0000000000000","MEAN_ELEMENT_THEORY":"SGP4","OBJECT_TYPE":"PAYLOAD","CLASSIFICATION_TYPE":"U","OBJECT_NAME":"STARLINK-2317","GP_ID":"206287195","SITE":"AFETR","APOAPSIS":"548.534","BSTAR":"0.00007479700000","RCS_SIZE":"LARGE","NORAD_CAT_ID":"47982","TLE_LINE1":"1 47982U 21024F   22166.98001705  .00000832  00000-0  74797-4 0  9997","TIME_SYSTEM":"UTC","PERIOD":"95.593","TLE_LINE2":"2 47982  53.0544 264.0531 0001857  44.2346 315.8791 15.06388693 70097","ECCENTRICITY":"0.00018570","ARG_OF_PERICENTER":"44.2346","ELEMENT_SET_NO":"999","COUNTRY_CODE":"US","EPOCH":"2022-06-15T23:31:13.473120","RA_OF_ASC_NODE":"264.0531","INCLINATION":"53.0544","FILE":"3497002","LAUNCH_DATE":"2021-03-24","CENTER_NAME":"EARTH","OBJECT_ID":"2021-024F","REF_FRAME":"TEME","SEMIMAJOR_AXIS":"6925.383","DECAY_DATE":null,"EPHEMERIS_TYPE":"0","MEAN_MOTION_DOT":"0.00000832","PERIAPSIS":"545.962","MEAN_MOTION":"15.06388693","MEAN_ANOMALY":"315.8791","REV_AT_EPOCH":"7009"},{"BSTAR":"0.00004702100000","RCS_SIZE":"LARGE","TLE_LINE1":"1 47985U 21024J   22166.98509660  .00000419  00000-0  47021-4 0  9994","NORAD_CAT_ID":"47985","OBJECT_NAME":"STARLINK-2308","SITE":"AFETR","GP_ID":"206287944","APOAPSIS":"548.136","MEAN_ELEMENT_THEORY":"SGP4","MEAN_MOTION_DDOT":"0.0000000000000","CLASSIFICATION_TYPE":"U","OBJECT_TYPE":"PAYLOAD","REF_FRAME":"TEME","SEMIMAJOR_AXIS":"6925.336","PERIAPSIS":"546.265","MEAN_MOTION_DOT":"0.00000419","MEAN_MOTION":"15.06404152","DECAY_DATE":null,"EPHEMERIS_TYPE":"0","MEAN_ANOMALY":"279.6999","REV_AT_EPOCH":"7001","CENTER_NAME":"EARTH","OBJECT_ID":"2021-024J","FILE":"3497002","INCLINATION":"53.0549","LAUNCH_DATE":"2021-03-24","PERIOD":"95.592","TLE_LINE2":"2 47985  53.0549 269.2032 0001351  80.4143 279.6999 15.06404152 70012","ECCENTRICITY":"0.00013510","ARG_OF_PERICENTER":"80.4143","TIME_SYSTEM":"UTC","EPOCH":"2022-06-15T23:38:32.346240","COUNTRY_CODE":"US","ELEMENT_SET_NO":"999","RA_OF_ASC_NODE":"269.2032"},{"TLE_LINE1":"1 47988U 21024M   22167.08334491  .00095753  00000-0  35347-3 0  9999","NORAD_CAT_ID":"47988","BSTAR":"0.00035347000000","RCS_SIZE":"LARGE","OBJECT_TYPE":"PAYLOAD","CLASSIFICATION_TYPE":"U","MEAN_ELEMENT_THEORY":"SGP4","MEAN_MOTION_DDOT":"0.0000000000000","SITE":"AFETR","GP_ID":"206288192","APOAPSIS":"314.332","OBJECT_NAME":"STARLINK-2306","CENTER_NAME":"EARTH","OBJECT_ID":"2021-024M","PERIAPSIS":"304.745","MEAN_MOTION_DOT":"0.00095753","MEAN_MOTION":"15.87413846","EPHEMERIS_TYPE":"0","DECAY_DATE":null,"REV_AT_EPOCH":"130","MEAN_ANOMALY":"258.7731","REF_FRAME":"TEME","SEMIMAJOR_AXIS":"6687.674","EPOCH":"2022-06-16T02:00:01.000224","COUNTRY_CODE":"US","ELEMENT_SET_NO":"999","RA_OF_ASC_NODE":"240.2011","PERIOD":"90.714","TLE_LINE2":"2 47988  53.0344 240.2011 0007167 276.6622 258.7731 15.87413846  1303","ARG_OF_PERICENTER":"276.6622","ECCENTRICITY":"0.00071670","TIME_SYSTEM":"UTC","FILE":"3497002","INCLINATION":"53.0344","LAUNCH_DATE":"2021-03-24"},{"DECAY_DATE":null,"EPHEMERIS_TYPE":"0","PERIAPSIS":"546.247","MEAN_MOTION_DOT":"-0.00002099","MEAN_MOTION":"15.06392613","MEAN_ANOMALY":"276.0430","REV_AT_EPOCH":"7030","REF_FRAME":"TEME","SEMIMAJOR_AXIS":"6925.371","CENTER_NAME":"EARTH","OBJECT_ID":"2021-024N","INCLINATION":"53.0555","FILE":"3496794","LAUNCH_DATE":"2021-03-24","ELEMENT_SET_NO":"999","EPOCH":"2022-06-15T12:09:11.313216","COUNTRY_CODE":"US","RA_OF_ASC_NODE":"246.1993","TIME_SYSTEM":"UTC","PERIOD":"95.593","TLE_LINE2":"2 47989  53.0555 246.1993 0001429  84.0722 276.0430 15.06392613 70303","ECCENTRICITY":"0.00014290","ARG_OF_PERICENTER":"84.0722","NORAD_CAT_ID":"47989","TLE_LINE1":"1 47989U 21024N   22166.50638094 -.00002099  00000-0 -12210-3 0  9999","BSTAR":"-0.00012210000000","RCS_SIZE":"LARGE","GP_ID":"206207495","SITE":"AFETR","APOAPSIS":"548.226","OBJECT_NAME":"STARLINK-2305","OBJECT_TYPE":"PAYLOAD","CLASSIFICATION_TYPE":"U","MEAN_MOTION_DDOT":"0.0000000000000","MEAN_ELEMENT_THEORY":"SGP4"},{"OBJECT_NAME":"STARLINK-2307","SITE":"AFETR","GP_ID":"206287696","APOAPSIS":"548.467","MEAN_ELEMENT_THEORY":"SGP4","MEAN_MOTION_DDOT":"0.0000000000000","OBJECT_TYPE":"PAYLOAD","CLASSIFICATION_TYPE":"U","BSTAR":"0.00000247320000","RCS_SIZE":"LARGE","TLE_LINE1":"1 47990U 21024P   22166.92288481 -.00000245  00000-0  24732-5 0  9992","NORAD_CAT_ID":"47990","FILE":"3497002","INCLINATION":"53.0541","LAUNCH_DATE":"2021-03-24","TLE_LINE2":"2 47990  53.0541 244.3063 0001786  46.4657 313.6480 15.06394731 70354","PERIOD":"95.592","ECCENTRICITY":"0.00017860","ARG_OF_PERICENTER":"46.4657","TIME_SYSTEM":"UTC","EPOCH":"2022-06-15T22:08:57.247584","COUNTRY_CODE":"US","ELEMENT_SET_NO":"999","RA_OF_ASC_NODE":"244.3063","REF_FRAME":"TEME","SEMIMAJOR_AXIS":"6925.365","PERIAPSIS":"545.993","MEAN_MOTION_DOT":"-0.00000245","MEAN_MOTION":"15.06394731","EPHEMERIS_TYPE":"0","DECAY_DATE":null,"MEAN_ANOMALY":"313.6480","REV_AT_EPOCH":"7035","CENTER_NAME":"EARTH","OBJECT_ID":"2021-024P"},{"CLASSIFICATION_TYPE":"U","OBJECT_TYPE":"PAYLOAD","MEAN_MOTION_DDOT":"0.0000000000000","MEAN_ELEMENT_THEORY":"SGP4","APOAPSIS":"548.175","GP_ID":"206206504","SITE":"AFETR","OBJECT_NAME":"STARLINK-2279","NORAD_CAT_ID":"47991","TLE_LINE1":"1 47991U 21024Q   22166.53632588 -.00001952  00000-0 -11221-3 0  9995","RCS_SIZE":"LARGE","BSTAR":"-0.00011221000000","RA_OF_ASC_NODE":"261.0695","ELEMENT_SET_NO":"999","EPOCH":"2022-06-15T12:52:18.556032","COUNTRY_CODE":"US","TIME_SYSTEM":"UTC","PERIOD":"95.593","TLE_LINE2":"2 47991  53.0571 261.0695 0001325  86.5247 273.5894 15.06385838 70142","ARG_OF_PERICENTER":"86.5247","ECCENTRICITY":"0.00013250","LAUNCH_DATE":"2021-03-24","INCLINATION":"53.0571","FILE":"3496794","OBJECT_ID":"2021-024Q","CENTER_NAME":"EARTH","MEAN_ANOMALY":"273.5894","REV_AT_EPOCH":"7014","DECAY_DATE":null,"EPHEMERIS_TYPE":"0","MEAN_MOTION_DOT":"-0.00001952","PERIAPSIS":"546.339","MEAN_MOTION":"15.06385838","SEMIMAJOR_AXIS":"6925.392","REF_FRAME":"TEME"}];
